GLOBALSTAR M070         
1 32264U 07048B   24241.90162525 -.00000058  00000+0  25442-3 0  9992
2 32264  51.9754 298.9148 0000663 141.5585  30.6068 12.62298661776753
GLOBALSTAR M066         
1 32265U 07048C   24241.52518624 -.00000072  00000+0  18213-3 0  9990
2 32265  51.9668 162.9497 0001185 308.5745 232.5352 12.55316886778953
GLOBALSTAR M068         
1 32266U 07048D   24241.91940610 -.00000073  00000+0  17362-3 0  9993
2 32266  51.9879 113.1700 0000472 157.2488 215.0289 12.62797892780635
GLOBALSTAR M079         
1 37188U 10054A   24241.93323433 -.00000079  00000+0  13977-3 0  9996
2 37188  52.0051 309.4579 0000491  82.4103  89.7939 12.62263264639547
GLOBALSTAR M074         
1 37189U 10054B   24241.95940525 -.00000072  00000+0  17926-3 0  9997
2 37189  52.0029 308.7450 0000499 115.4184  56.3104 12.62272030640229
GLOBALSTAR M076         
1 37190U 10054C   24241.90712799 -.00000071  00000+0  18359-3 0  9994
2 37190  52.0041 309.0523 0000860  92.9447  78.8929 12.62255897639867
GLOBALSTAR M077         
1 37191U 10054D   24241.81426383 -.00000074  00000+0  16477-3 0  9998
2 37191  52.0052 266.1038 0000319 114.5254  56.4095 12.62263140640228
